0 FENGYUN 1C DEB
1 39113U 99025EWA 13295.40518153  .00000982  00000-0  64072-3 0   126
2 39113 099.1538 353.0151 0046951 190.0111 228.4097 14.04248091 36789
